[{"OBJECT_NAME":"ONEWEB-0213","OBJECT_ID":"2021-045Z","EPOCH":"2026-03-09T19:49:21.942624","MEAN_MOTION":13.15548944,"ECCENTRICITY":0.00016514,"INCLINATION":87.8948,"RA_OF_ASC_NODE":279.0263,"ARG_OF_PERICENTER":100.3738,"MEAN_ANOMALY":259.7578,"EPHEMERIS_TYPE":0,"CLASSIFICATION_TYPE":"U","NORAD_CAT_ID":48790,"ELEMENT_SET_NO":999,"REV_AT_EPOCH":23137,"BSTAR":-1.66796e-5,"MEAN_MOTION_DOT":7.0e-8,"MEAN_MOTION_DDOT":0},{"OBJECT_NAME":"COSMOS 963","OBJECT_ID":"1977-109A","EPOCH":"2026-03-09T20:17:46.784832","MEAN_MOTION":13.17654828,"ECCENTRICITY":0.0014961,"INCLINATION":82.9355,"RA_OF_ASC_NODE":336.2952,"ARG_OF_PERICENTER":328.6045,"MEAN_ANOMALY":100.4048,"EPHEMERIS_TYPE":0,"CLASSIFICATION_TYPE":"U","NORAD_CAT_ID":10491,"ELEMENT_SET_NO":999,"REV_AT_EPOCH":32262,"BSTAR":-8.3269377e-5,"MEAN_MOTION_DOT":-2.0e-7,"MEAN_MOTION_DDOT":0}]
